# From MPEC 2022-S20
C/1995 O1 (Hale-Bopp),e,89.6360,281.9519,130.4215,179.8348,0.0004087,0.99492270,0.0000,03/30.4216/1997,2000,g -2.0,4.0
# From NK 1615
P/1996 R2 (Lagerkvist),e,2.5990,40.0375,333.5113,3.771574,0.1345613,0.31407266,341.3292,01/28.0/2026,2000,g 11.5,4.0
# From MPC 73460
C/1997 BA6 (Spacewatch),e,72.6924,317.7868,286.0738,2927,0.0000062,0.99881714,0.0000,11/16.0912/1999,2000,g 10.0,2.0
# From MPC 75703
P/1998 VS24 (LINEAR),e,5.0302,159.0326,244.9371,4.519503,0.1025813,0.24342951,299.6633,01/28.0/2026,2000,g 13.0,2.0
# From MPC 73461
C/1999 F1 (Catalina),e,91.8709,19.9584,255.3248,20362,0.0000003,0.99971454,0.0000,01/31.1309/2002,2000,g  9.5,2.0
# From MPC186628
C/1999 J2 (Skiff),h,04/09.5023/2000,86.4022,50.2667,126.9653,1.000774,7.070599,2000,2.0,4.0
# From NK 731
P/1999 RO28 (LONEOS),e,7.5672,137.8391,231.3623,3.425499,0.1554599,0.67220669,13.9433,01/28.0/2026,2000,g 20.0,2.0
# From MPC 43758
C/1999 S2 (McNaught-Watson),h,11/06.7430/1997,65.6325,74.4448,223.4723,1.002294,6.503242,2000,2.0,4.0
# From MPC 75704
P/1999 XN120 (Catalina),e,5.0298,285.2388,161.4661,4.190990,0.1148760,0.21305766,4.3820,01/28.0/2026,2000,g 13.5,2.0
# From NK 744
P/2000 R2 (LINEAR),e,11.6793,160.2683,176.5818,3.468199,0.1525977,0.53052654,8.6529,01/28.0/2026,2000,g 18.0,4.0
# From MPC 43019
P/2001 H5 (NEAT),e,8.3728,328.6844,224.5815,6.093190,0.0655295,0.59969690,246.8045,01/28.0/2026,2000,g 12.0,4.0
# From MPC 46619
C/2001 M10 (NEAT),e,27.9938,293.9622,5.6045,26.71953,0.0071361,0.79926671,64.2632,01/28.0/2026,2000,g  8.0,4.0
# From MPEC 2015-N31
C/2002 A1 (LINEAR),e,14.0789,81.0447,18.7221,16.04120,0.0153408,0.70975968,135.3715,01/28.0/2026,2000,g 12.5,2.0
# From MPC 89006
C/2002 A2 (LINEAR),e,14.0330,81.0115,19.1174,15.89619,0.0155512,0.70743199,137.1185,01/28.0/2026,2000,g 11.0,2.0
# From MPC 45962
C/2002 B1 (LINEAR),e,51.0297,58.2626,76.0892,9.874150,0.0317654,0.77053806,276.3813,01/28.0/2026,2000,g 11.5,4.0
# From MPC188408
C/2002 CE10 (LINEAR),e,145.3728,147.5632,126.2430,9.765608,0.0322965,0.78947410,266.4193,01/28.0/2026,2000,g 13.0,2.0
# From MPEC 2023-UR6
P/2002 EJ57 (LINEAR),e,4.9911,330.2192,167.2993,6.454473,0.0601053,0.59418409,166.9374,01/28.0/2026,2000,g 12.5,4.0
# From MPEC 2015-N31
C/2002 L9 (NEAT),h,04/02.4062/2004,68.2211,110.4979,231.5831,1.000453,7.073668,2000,8.5,2.0
# From MPC 75007
C/2002 VQ94 (LINEAR),e,70.6177,35.0494,99.8156,187.5488,0.0003837,0.96400516,2.7970,01/28.0/2026,2000,g  9.5,2.0
# From MPC186628
C/2003 A2 (Gleason),e,8.0712,154.4559,346.5548,8300,0.0000013,0.99863088,0.0000,11/08.6828/2003,2000,g  3.5,4.0
# From MPC 51182
C/2003 E1 (NEAT),e,33.4704,137.1216,103.9212,13.77268,0.0192831,0.76207396,155.1252,01/28.0/2026,2000,g 12.5,2.0
# From MPC 50354
P/2003 F2 (NEAT),e,11.5769,358.9633,193.1055,6.554887,0.0587295,0.53610391,133.3661,01/28.0/2026,2000,g 16.5,2.0
# From unp
P/2003 L1 (Scotti),e,9.0450,225.8249,355.0511,6.693946,0.0569090,0.25188820,115.3478,01/28.0/2026,2000,g  9.5,4.0
# From MPC105235
P/2003 T12 (SOHO),e,11.0204,174.5691,219.8053,2.584265,0.2372458,0.77003334,136.0223,01/28.0/2026,2000,g 17.0,4.0
# From MPC 57131
C/2004 B1 (LINEAR),h,02/07.8862/2006,113.9143,273.3330,328.1169,1.000952,1.601467,2000,10.5,2.0
# From MPC 51368
C/2004 C1 (Larsen),e,28.8625,151.9549,315.9683,11.62433,0.0248686,0.62580256,359.9917,03/19.0/2003,2000,g 13.5,2.0
# From MPEC 2022-YN2
P/2004 FY140 (LINEAR),e,2.1629,327.2625,254.3291,4.968408,0.0889976,0.19290095,325.2370,01/28.0/2026,2000,g 12.5,2.0
# From MPC 53304
P/2004 R3 (LINEAR-NEAT),e,12.8055,305.1242,37.0247,4.744008,0.0953863,0.25496721,152.2723,01/28.0/2026,2000,g 14.5,4.0
# From MPC 53465
C/2004 T3 (Siding Spring),e,71.7785,50.3527,259.8471,39168,0.0000001,0.99977259,0.0000,04/04.2521/2003,2000,g  2.5,4.0
# From MPC 75705
P/2004 V5 (LINEAR-Hill),e,19.3294,47.7344,87.1465,8.055664,0.0431074,0.44963072,336.0981,01/28.0/2026,2000,g  8.0,4.0
# From unp
P/2004 V5-A (LINEAR-Hill),e,19.3328,47.7614,87.1114,8.056503,0.0431007,0.44971514,336.1123,01/28.0/2026,2000,g  8.0,4.0
# From MPC 75705
P/2004 V5-B (LINEAR-Hill),e,19.3296,47.7348,87.1511,8.055862,0.0431058,0.44964462,336.0569,01/28.0/2026,2000,g  8.0,4.0
# From MPC 54164
P/2005 E1 (Tubbiolo),e,4.2607,335.4839,193.9714,7.073878,0.0523863,0.37759167,44.6585,01/28.0/2026,2000,g 10.0,4.0
# From MPC 74246
P/2005 L1 (McNaught),e,10.2300,123.8190,167.0349,3.836705,0.1311494,0.28370010,184.0453,01/28.0/2026,2000,g  9.5,4.0
# From MPC 87062
C/2005 L3 (McNaught),e,139.3138,288.7781,46.9643,3939,0.0000040,0.99858464,0.0000,01/14.1697/2008,2000,g  4.0,4.0
# From MPC 75706
P/2005 S2 (Skiff),e,3.1395,161.3260,230.0781,7.981053,0.0437133,0.19818061,312.1238,01/28.0/2026,2000,g  7.5,4.0
# From MPC 73461
P/2005 T3 (Read),e,6.2337,27.6187,7.1810,7.567083,0.0473491,0.17361325,350.2855,01/28.0/2026,2000,g  9.0,4.0
# From MPC 75707
P/2006 HR30 (Siding Spring),e,31.9665,309.7452,117.5292,7.793581,0.0453000,0.84352220,315.3574,01/28.0/2026,2000,g 11.0,4.0
# From MPEC 2022-L66
C/2006 S3 (LONEOS),h,04/16.4670/2012,166.0456,38.5325,140.1329,1.000651,5.117828,2000,2.0,4.0
# From MPC 84315
C/2007 D1 (LINEAR),e,41.5185,170.9821,339.8182,1310,0.0000208,0.99332854,0.0000,06/16.2395/2007,2000,g  3.5,4.0
# From MPEC 2024-GJ3
P/2007 K2 (Gibbs),e,7.5870,188.2962,347.0368,7.403339,0.0489286,0.68703784,342.2362,01/28.0/2026,2000,g 14.0,4.0
# From MPC 73462
P/2007 S1 (Zhao),e,5.9625,141.3207,245.2849,3.819300,0.1320470,0.33764228,159.7749,01/28.0/2026,2000,g 13.0,4.0
# From MPEC 2024-GJ3
C/2007 S2 (Lemmon),e,16.9211,296.1348,210.1507,12.49204,0.0223231,0.55746263,141.7537,01/28.0/2026,2000,g  6.5,4.0
# From MPEC 2024-GJ3
C/2008 E1 (Catalina),e,34.8636,188.8753,270.4274,10.76367,0.0279103,0.55293446,177.6354,01/28.0/2026,2000,g  7.0,4.0
# From MPC 95207
C/2008 S3 (Boattini),h,06/09.2554/2011,162.7422,55.0233,40.1970,1.001860,8.055910,2000,4.0,4.0
# From MPC 75710
P/2008 Y3 (McNaught),e,38.7805,262.8261,238.1969,8.033601,0.0432851,0.44864903,270.1173,01/28.0/2026,2000,g  8.5,4.0
# From MPC 75710
P/2009 B1 (Boattini),e,22.2597,297.1088,129.0275,6.721539,0.0565589,0.63579608,351.3180,01/28.0/2026,2000,g 13.0,4.0
# From MPC 95208
C/2009 F4 (McNaught),e,79.2048,53.5058,260.5031,22837,0.0000003,0.99976014,0.0000,12/25.4586/2011,2000,g  3.0,4.0
# From MPC103843
C/2009 P1 (Garradd),e,106.2253,325.8472,90.4527,10371,0.0000009,0.99985160,0.0000,12/24.2477/2011,2000,g  4.0,4.0
# From MPC 68902
P/2009 Q5 (McNaught),e,40.9476,160.1816,209.1994,7.427406,0.0486910,0.60908315,290.8316,01/28.0/2026,2000,g 10.0,4.0
# From MPC105235
P/2009 WX51 (Catalina),e,9.5981,31.5214,118.2936,3.082960,0.1820758,0.73975674,345.9706,01/28.0/2026,2000,g 19.0,2.0
# From MPC 74247
P/2009 Y2 (Kowalski),e,29.9725,262.0772,172.2779,6.534168,0.0590091,0.63728448,341.8361,01/28.0/2026,2000,g 13.0,4.0
# From MPC 75008
P/2010 C1 (Scotti),e,9.1158,141.5827,2.8740,7.133829,0.0517273,0.26451697,309.9951,01/28.0/2026,2000,g  9.5,4.0
# From MPC 75008
P/2010 D2 (WISE),e,57.1398,319.8800,120.0620,6.712865,0.0566686,0.45153118,330.0922,01/28.0/2026,2000,g 16.0,4.0
# From MPC 72851
P/2010 H2 (Vales),e,14.2780,64.1894,128.0772,3.835376,0.1312176,0.19799207,42.5384,01/28.0/2026,2000,g  6.0,4.0
# From MPC 70361
P/2010 H3 (SOHO),e,23.1395,77.1668,26.0896,3.034523,0.1864526,0.98558073,0.0000,05/25.2485/2026,2000,g 20.0,2.0
# From MPEC 2024-GJ3
P/2010 H4 (Scotti),e,2.3177,44.7492,179.0814,6.620219,0.0578623,0.26744014,332.3115,01/28.0/2026,2000,g 10.5,4.0
# From MPC 74637
P/2010 H5 (Scotti),e,14.0529,24.3690,175.4681,7.167661,0.0513615,0.15659253,297.6714,01/28.0/2026,2000,g 13.0,2.0
# From MPC 84315
P/2010 JC81 (WISE),e,38.7374,30.8315,12.5242,8.103184,0.0427288,0.77783835,229.9128,01/28.0/2026,2000,g  9.0,4.0
# From MPC 83518
C/2010 L3 (Catalina),e,102.6431,38.3189,121.7502,36115,0.0000001,0.99972677,0.0000,11/12.5074/2010,2000,g  4.5,4.0
# From MPC115879
C/2010 S1 (LINEAR),h,05/20.4857/2013,125.4394,93.6703,118.7152,1.000695,5.908081,2000,3.5,4.0
# From MPC 74248
P/2010 T2 (PANSTARRS),e,7.8524,57.6876,349.8248,5.567171,0.0750330,0.32437917,53.0979,01/28.0/2026,2000,g 11.5,4.0
# From MPEC 2023-J95
C/2010 U3 (Boattini),h,02/28.8864/2019,55.5273,42.9948,88.1124,1.000242,8.441096,2000,1.0,4.0
# From MPC 79021
P/2010 UH55 (Spacewatch),e,8.0379,232.7931,225.3802,6.645112,0.0575375,0.56466047,310.7229,01/28.0/2026,2000,g 11.0,4.0
# From MPC 84021
P/2011 C2 (Gibbs),e,10.8985,11.9680,160.3236,7.405838,0.0489038,0.27174986,252.5672,01/28.0/2026,2000,g  9.0,4.0
# From MPC 89309
C/2011 F1 (LINEAR),e,56.3858,85.1957,192.6011,3701,0.0000044,0.99950365,0.0000,01/01.6998/2013,2000,g  5.0,4.0
# From MPC 79866
P/2011 FR143 (Lemmon),e,15.9610,190.8418,349.6042,6.886830,0.0545350,0.45299800,300.0446,01/28.0/2026,2000,g 14.0,2.0
# From MPC106343
C/2011 J2 (LINEAR),h,12/20.4977/2013,122.7953,164.0556,85.4807,1.000310,3.459875,2000,5.5,3.6
# From MPC 82317
P/2011 JB15 (Spacewatch-Boattini),e,19.1277,153.5826,110.6051,7.382549,0.0491354,0.31524826,253.2999,01/28.0/2026,2000,g  9.0,4.0
# From MPEC 2023-J95
C/2011 KP36 (Spacewatch),e,18.9556,173.4063,180.9678,39.37943,0.0039884,0.87491552,14.1002,01/28.0/2026,2000,g  4.5,4.0
# From MPC 87913
P/2011 N1 (ASH),e,35.7826,77.6244,330.5222,6.231216,0.0633643,0.54531296,315.5098,01/28.0/2026,2000,g 11.5,4.0
# From MPEC 2022-ED3
P/2011 P1 (McNaught),e,5.6501,4.2423,349.1317,7.464168,0.0483317,0.32600573,273.5388,01/28.0/2026,2000,g  9.0,4.0
# From MPC107047
C/2011 P2 (PANSTARRS),e,8.9825,203.9288,76.2029,9.765851,0.0322953,0.36527098,182.3950,01/28.0/2026,2000,g  8.5,4.0
# From MPEC 2022-HC2
P/2011 S1 (Gibbs),e,2.6875,218.8977,193.0404,8.600969,0.0390736,0.20042261,163.1322,01/28.0/2026,2000,g  8.0,4.0
# From MPEC 2023-UR6
P/2011 V1 (Boattini),e,7.3822,46.4905,269.5907,3.858239,0.1300530,0.54838394,348.8775,01/28.0/2026,2000,g 15.5,4.0
# From MPC 82718
P/2011 W1 (PANSTARRS),e,3.7157,161.7914,283.1091,4.675791,0.0974813,0.28827727,141.1895,01/28.0/2026,2000,g 11.5,4.0
# From MPC 79342
